      2.10          N: GNSS NAV DATA                        RINEX VERSION / TYPE
fic2rin                                 12/15/2020 00:17:05 PGM / RUN BY / DATE
                                                            END OF HEADER
20 20 12 14  6  0  0.0 5.256170406938e-04-1.136868377216e-13 0.000000000000e+00
    1.010000000000e+02-2.743750000000e+01 4.952349142363e-09 9.271709369168e-01
   -1.506879925728e-06 5.878990516067e-03 1.120753586292e-05 5.153664991379e+03
    1.080000000000e+05 9.499490261078e-08 3.423448811127e-01 5.587935447693e-08
    9.365124339591e-01 1.476250000000e+02 2.793086966552e+00-8.087479733136e-09
    5.414511250413e-10 1.000000000000e+00 2.136000000000e+03 0.000000000000e+00
    2.400000000000e+00 0.000000000000e+00-8.381903171539e-09 1.010000000000e+02
    1.008000000000e+05 4.000000000000e+00
14 20 12 14  6  0  0.0 6.315950304270e-05 1.057287590811e-11 0.000000000000e+00
    1.110000000000e+02 1.569375000000e+02 4.393040130612e-09 1.535270427707e+00
    8.206814527512e-06 1.770423259586e-04 7.467344403267e-06 5.153743515015e+03
    1.080000000000e+05-1.862645149231e-08-2.612939347298e+00-3.725290298462e-09
    9.595503245054e-01 2.344687500000e+02 1.684578924857e+00-8.043192174096e-09
    2.896549224330e-10 1.000000000000e+00 2.136000000000e+03 0.000000000000e+00
    2.400000000000e+00 0.000000000000e+00-2.328306436539e-09 3.670000000000e+02
    1.008000000000e+05 4.000000000000e+00
11 20 12 14  6  0  0.0-8.185533806682e-05 1.057287590811e-11 0.000000000000e+00
    9.200000000000e+01-1.430312500000e+02 5.836671692232e-09 9.154856841906e-01
   -7.737427949905e-06 1.549728936516e-02 1.326203346252e-06 5.153730758667e+03
    1.080000000000e+05 7.264316082001e-08-1.043343498393e+00-3.147870302200e-07
    9.138646480736e-01 3.304687500000e+02 2.073267905256e+00-9.094664543569e-09
   -2.667968274445e-10 1.000000000000e+00 2.136000000000e+03 0.000000000000e+00
    2.400000000000e+00 6.300000000000e+01-1.257285475731e-08 9.200000000000e+01
    1.008000000000e+05 4.000000000000e+00
23 20 12 14  6  0  0.0 1.098592765629e-04 2.955857780762e-12 0.000000000000e+00
    2.290000000000e+02-1.565625000000e+01 4.421255591613e-09 1.369509017571e+00
   -9.238719940186e-07 1.098465523683e-03 1.090764999390e-05 5.153633584976e+03
    1.080000000000e+05-3.725290298462e-09 4.571796186348e-01 2.793967723846e-08
    9.626659026018e-01 1.687187500000e+02 2.236769142070e+00-7.796039022032e-09
    6.082396213359e-10 1.000000000000e+00 2.136000000000e+03 0.000000000000e+00
    2.400000000000e+00 0.000000000000e+00-8.381903171539e-09 9.970000000000e+02
    1.008000000000e+05 4.000000000000e+00
18 20 12 14  6  0  0.0 3.322851844132e-04 3.751665644813e-12 0.000000000000e+00
    2.070000000000e+02-1.651250000000e+02 4.185531487044e-09 1.667932124022e+00
   -8.407980203629e-06 1.190046779811e-03 9.430572390556e-06 5.153710952759e+03
    1.080000000000e+05 7.078051567078e-08-5.414918475604e-01-1.862645149231e-09
    9.664849921507e-01 1.990000000000e+02 2.986524656740e+00-7.960331579762e-09
   -2.160804291886e-10 1.000000000000e+00 2.136000000000e+03 0.000000000000e+00
    2.400000000000e+00 0.000000000000e+00-8.381903171539e-09 7.190000000000e+02
    1.008000000000e+05 4.000000000000e+00
28 20 12 14  6  0  0.0 6.433879025280e-04-4.774847184308e-12 0.000000000000e+00
    5.500000000000e+01 1.654687500000e+02 3.927663602954e-09-1.875610038732e+00
    9.004026651382e-06 1.826796692330e-02 6.522983312607e-06 5.153678466797e+03
    1.080000000000e+05 7.636845111847e-08-2.565952519342e+00 4.190951585770e-07
    9.751961689948e-01 2.625000000000e+02-1.364738421233e+00-7.763537668220e-09
    3.232277494475e-10 1.000000000000e+00 2.136000000000e+03 0.000000000000e+00
    4.850000000000e+00 0.000000000000e+00-1.117587089539e-08 5.500000000000e+01
    1.008000000000e+05 4.000000000000e+00
13 20 12 14  5 59 44.0 7.484015077353e-05 3.979039320257e-12 0.000000000000e+00
    0.000000000000e+00-1.196875000000e+01 4.745554814263e-09 3.003803005161e+00
   -5.923211574554e-07 4.887475748546e-03 5.194917321205e-06 5.153673347473e+03
    1.079840000000e+05 1.676380634308e-08 1.659317316907e+00-4.842877388000e-08
    9.674077818572e-01 2.826875000000e+02 1.049346468624e+00-8.002119034663e-09
   -2.289381076197e-10 1.000000000000e+00 2.136000000000e+03 0.000000000000e+00
    2.400000000000e+00 0.000000000000e+00-1.164153218269e-08 0.000000000000e+00
    1.012800000000e+05 4.000000000000e+00
28 20 12 14  5 59 44.0 6.433785893023e-04-4.888534022029e-12 0.000000000000e+00
    0.000000000000e+00 1.654687500000e+02 3.927663602954e-09-1.877943656394e+00
    9.004026651382e-06 1.826796669047e-02 6.522983312607e-06 5.153678470612e+03
    1.079840000000e+05 7.636845111847e-08-2.565952412549e+00 4.190951585770e-07
    9.751961733835e-01 2.625000000000e+02-1.364738536804e+00-7.763537668220e-09
    3.235849071817e-10 1.000000000000e+00 2.136000000000e+03 0.000000000000e+00
    2.400000000000e+00 0.000000000000e+00-1.117587089539e-08 0.000000000000e+00
    1.012800000000e+05 4.000000000000e+00
22 20 12 14  5 59 44.0-7.155328057706e-04 6.025402399246e-12 0.000000000000e+00
    2.000000000000e+00-2.715625000000e+01 4.954134931034e-09 2.660285644947e+00
   -1.396983861923e-06 6.779015297070e-03 1.107901334763e-05 5.153657976151e+03
    1.079840000000e+05 1.695007085800e-07 3.891138761777e-01 8.009374141693e-08
    9.331663306947e-01 1.480312500000e+02-1.065951726974e+00-7.944973797192e-09
    5.582375385485e-10 1.000000000000e+00 2.136000000000e+03 0.000000000000e+00
    2.400000000000e+00 0.000000000000e+00-1.816079020500e-08 2.000000000000e+00
    1.024500000000e+05 4.000000000000e+00
13 20 12 14  7 59 44.0 7.486902177334e-05 3.979039320257e-12 0.000000000000e+00
    1.000000000000e+00-1.268750000000e+01 4.781984903151e-09-2.229254342557e+00
   -5.997717380524e-07 4.888045950793e-03 5.006790161133e-06 5.153672163010e+03
    1.151840000000e+05 5.029141902924e-08 1.659259476052e+00-1.676380634308e-08
    9.674062545707e-01 2.871562500000e+02 1.049401823981e+00-8.013190924423e-09
   -1.960795960737e-10 1.000000000000e+00 2.136000000000e+03 0.000000000000e+00
    2.400000000000e+00 0.000000000000e+00-1.164153218269e-08 1.000000000000e+00
    1.080000000000e+05 4.000000000000e+00
28 20 12 14  7 59 44.0 6.433431990445e-04-4.888534022029e-12 0.000000000000e+00
    4.800000000000e+01 1.556250000000e+02 4.153387290966e-09-8.278995118978e-01
    8.212402462959e-06 1.826768834144e-02 7.631257176399e-06 5.153673871994e+03
    1.151840000000e+05-2.719461917877e-07-2.566011338889e+00 3.539025783539e-08
    9.751968726584e-01 2.481875000000e+02-1.364605812098e+00-8.247129240322e-09
    4.514473760239e-10 1.000000000000e+00 2.136000000000e+03 0.000000000000e+00
    2.400000000000e+00 0.000000000000e+00-1.117587089539e-08 4.800000000000e+01
    1.080000000000e+05 4.000000000000e+00
 1 20 12 14  8  0  0.0 7.959697395563e-04-5.229594535194e-12 0.000000000000e+00
    3.600000000000e+01-1.808750000000e+02 3.798015345441e-09 2.536419897190e+00
   -9.361654520035e-06 1.017757144291e-02 8.706003427505e-06 5.153701772690e+03
    1.152000000000e+05-5.774199962616e-08-5.557533078017e-01-1.862645149231e-07
    9.828214085823e-01 2.227812500000e+02 8.243185400616e-01-7.610317000250e-09
   -1.764359206929e-10 1.000000000000e+00 2.136000000000e+03 0.000000000000e+00
    2.400000000000e+00 0.000000000000e+00 5.122274160385e-09 3.600000000000e+01
    1.080000000000e+05 4.000000000000e+00
 2 20 12 14  8  0  0.0-5.542072467506e-04-4.433786671143e-12 0.000000000000e+00
    1.120000000000e+02-1.770937500000e+02 4.306965116671e-09 2.770604032516e+00
   -8.979812264442e-06 2.021149476059e-02 6.606802344322e-06 5.153581497192e+03
    1.152000000000e+05 2.812594175339e-07-6.361491733665e-01-1.695007085800e-07
    9.615984068906e-01 2.493125000000e+02-1.576424529598e+00-7.696749171926e-09
   -2.978695503195e-10 1.000000000000e+00 2.136000000000e+03 0.000000000000e+00
    2.400000000000e+00 0.000000000000e+00-1.769512891769e-08 1.120000000000e+02
    1.080000000000e+05 4.000000000000e+00
 5 20 12 14  8  0  0.0-2.831779420376e-05-1.023181539495e-12 0.000000000000e+00
    2.700000000000e+01-1.612500000000e+01 4.508759236491e-09-9.001905626074e-01
   -8.270144462585e-07 6.025564973243e-03 1.069158315659e-05 5.153784240723e+03
    1.152000000000e+05 5.215406417847e-08 4.480417261420e-01 7.264316082001e-08
    9.547502664609e-01 1.703750000000e+02 8.928356059125e-01-7.901400553620e-09
    5.618091158904e-10 1.000000000000e+00 2.136000000000e+03 0.000000000000e+00
    2.400000000000e+00 0.000000000000e+00-1.117587089539e-08 2.700000000000e+01
    1.080000000000e+05 4.000000000000e+00
 3 20 12 14  8  0  0.0-2.941815182567e-05-1.000444171950e-11 0.000000000000e+00
    7.200000000000e+01-2.400000000000e+01 4.247676932794e-09 1.348584840303e+00
   -1.238659024239e-06 3.242748905905e-03 1.100264489651e-05 5.153693712234e+03
    1.152000000000e+05-5.401670932770e-08 4.826775229648e-01 1.024454832077e-07
    9.677944237910e-01 1.699687500000e+02 8.925805461453e-01-7.712464112230e-09
    6.593131773260e-10 1.000000000000e+00 2.136000000000e+03 0.000000000000e+00
    2.400000000000e+00 0.000000000000e+00 1.862645149231e-09 7.200000000000e+01
    1.080000000000e+05 4.000000000000e+00
24 20 12 14  8  0  0.0 5.158595740795e-06-5.684341886081e-13 0.000000000000e+00
    1.000000000000e+01 3.937500000000e+00 4.809486048684e-09 2.862786049730e+00
    1.676380634308e-07 1.069348840974e-02 1.081079244614e-05 5.153628131866e+03
    1.152000000000e+05-2.980232238770e-08 2.511048309984e+00-9.313225746155e-08
    9.356870336350e-01 1.570312500000e+02 7.081910013521e-01-7.908900866038e-09
   -6.389551864768e-10 1.000000000000e+00 2.136000000000e+03 0.000000000000e+00
    2.400000000000e+00 0.000000000000e+00 2.793967723846e-09 1.000000000000e+01
    1.080000000000e+05 4.000000000000e+00
